{"type": "FeatureCollection", "features": [ {"type": "Feature", "properties": {"norad_id": 36676, "name": "FENGYUN 1C DEB", "group": "fengyun-1c-debris", "lat": 19.813649757974023, "lon": 84.5779514702976, "alt_km": 726.3826833197581, "timestamp": "2025-12-27T11:23:20.186035+00:00", "meta": {"OBJECT_NAME": "FENGYUN 1C DEB", "OBJECT_ID": "1999-025DYW", "EPOCH": "2025-12-12T12:03:08.237952", "MEAN_MOTION": 14.43199836, "ECCENTRICITY": 0.00955768, "INCLINATION": 98.7673, "RA_OF_ASC_NODE": 245.9859, "ARG_OF_PERICENTER": 132.3194, "MEAN_ANOMALY": 40.1509, "EPHEMERIS_TYPE": 0, "CLASSIFICATION_TYPE": "U", "NORAD_CAT_ID": 36676, "ELEMENT_SET_NO": 999, "REV_AT_EPOCH": 65062, "BSTAR": 0.00064689298, "MEAN_MOTION_DOT": 2.25e-05, "MEAN_MOTION_DDOT": 0}, "tle": {"line1": "1 36676U 99025DYW 25346.50217868  .00002250  00000+0  64689-3 0  9994", "line2": "2 36676  98.7673 245.9859 0095576 132.3194  40.1509 14.43199836650623"}}, "geometry": {"type": "Point", "coordinates": [84.5779514702976, 19.813649757974023]}}, {"type": "Feature", "properties": {"norad_id": 36679, "name": "FENGYUN 1C DEB", "group": "fengyun-1c-debris", "lat": 80.06877620244114, "lon": -120.12214015206723, "alt_km": 823.7548934848792, "timestamp": "2025-12-27T11:23:20.186045+00:00", "meta": {"OBJECT_NAME": "FENGYUN 1C DEB", "OBJECT_ID": "1999-025DYZ", "EPOCH": "2025-12-12T05:06:20.489760", "MEAN_MOTION": 14.04635854, "ECCENTRICITY": 0.00860329, "INCLINATION": 98.8358, "RA_OF_ASC_NODE": 342.3526, "ARG_OF_PERICENTER": 94.9778, "MEAN_ANOMALY": 266.1218, "EPHEMERIS_TYPE": 0, "CLASSIFICATION_TYPE": "U", "NORAD_CAT_ID": 36679, "ELEMENT_SET_NO": 999, "REV_AT_EPOCH": 24541, "BSTAR": 0.00093240851, "MEAN_MOTION_DOT": 1.499e-05, "MEAN_MOTION_DDOT": 0}, "tle": {"line1": "1 36679U 99025DYZ 25346.21273715  .00001499  00000+0  93241-3 0  9998", "line2": "2 36679  98.8358 342.3526 0086032  94.9778 266.1218 14.04635854245414"}}, "geometry": {"type": "Point", "coordinates": [-120.12214015206723, 80.06877620244114]}}, {"type": "Feature", "properties": {"norad_id": 36680, "name": "FENGYUN 1C DEB", "group": "fengyun-1c-debris", "lat": 76.7608951991692, "lon": -46.66894146342934, "alt_km": 902.4132860621885, "timestamp": "2025-12-27T11:23:20.186056+00:00", "meta": {"OBJECT_NAME": "FENGYUN 1C DEB", "OBJECT_ID": "1999-025DZA", "EPOCH": "2025-12-26T06:17:26.158848", "MEAN_MOTION": 14.18659412, "ECCENTRICITY": 0.018876, "INCLINATION": 98.5493, "RA_OF_ASC_NODE": 351.9074, "ARG_OF_PERICENTER": 210.1448, "MEAN_ANOMALY": 162.8822, "EPHEMERIS_TYPE": 0, "CLASSIFICATION_TYPE": "U", "NORAD_CAT_ID": 36680, "ELEMENT_SET_NO": 999, "REV_AT_EPOCH": 64489, "BSTAR": 0.00038416, "MEAN_MOTION_DOT": 9.06e-06, "MEAN_MOTION_DDOT": 0}, "tle": {"line1": "1 36680U 99025DZA 25360.26210832  .00000906  00000+0  38416-3 0  9997", "line2": "2 36680  98.5493 351.9074 0188760 210.1448 162.8822 14.18659412644893"}}, "geometry": {"type": "Point", "coordinates": [-46.66894146342934, 76.7608951991692]}}, {"type": "Feature", "properties": {"norad_id": 36681, "name": "FENGYUN 1C DEB", "group": "fengyun-1c-debris", "lat": -18.428029210025354, "lon": 176.68618733629717, "alt_km": 873.6408197491919, "timestamp": "2025-12-27T11:23:20.186066+00:00", "meta": {"OBJECT_NAME": "FENGYUN 1C DEB", "OBJECT_ID": "1999-025DZB", "EPOCH": "2025-12-24T17:44:34.713888", "MEAN_MOTION": 14.10290553, "ECCENTRICITY": 0.00442192, "INCLINATION": 98.6983, "RA_OF_ASC_NODE": 356.9645, "ARG_OF_PERICENTER": 315.3394, "MEAN_ANOMALY": 44.4218, "EPHEMERIS_TYPE": 0, "CLASSIFICATION_TYPE": "U", "NORAD_CAT_ID": 36681, "ELEMENT_SET_NO": 999, "REV_AT_EPOCH": 72927, "BSTAR": 0.00058901121, "MEAN_MOTION_DOT": 1.011e-05, "MEAN_MOTION_DDOT": 0}, "tle": {"line1": "1 36681U 99025DZB 25358.73929067  .00001011  00000+0  58901-3 0  9993", "line2": "2 36681  98.6983 356.9645 0044219 315.3394  44.4218 14.10290553729275"}}, "geometry": {"type": "Point", "coordinates": [176.68618733629717, -18.428029210025354]}}, {"type": "Feature", "properties": {"norad_id": 36682, "name": "FENGYUN 1C DEB", "group": "fengyun-1c-debris", "lat": 81.4741949063053, "lon": 168.31153547821174, "alt_km": 1134.4851582362799, "timestamp": "2025-12-27T11:23:20.186076+00:00", "meta": {"OBJECT_NAME": "FENGYUN 1C DEB", "OBJECT_ID": "1999-025DZC", "EPOCH": "2025-12-24T04:03:46.568736", "MEAN_MOTION": 13.70158625, "ECCENTRICITY": 0.02326677, "INCLINATION": 98.4855, "RA_OF_ASC_NODE": 260.6406, "ARG_OF_PERICENTER": 246.7187, "MEAN_ANOMALY": 110.9319, "EPHEMERIS_TYPE": 0, "CLASSIFICATION_TYPE": "U", "NORAD_CAT_ID": 36682, "ELEMENT_SET_NO": 999, "REV_AT_EPOCH": 61549, "BSTAR": 0.0009036125, "MEAN_MOTION_DOT": 9.25e-06, "MEAN_MOTION_DDOT": 0}, "tle": {"line1": "1 36682U 99025DZC 25358.16928899  .00000925  00000+0  90361-3 0  9992", "line2": "2 36682  98.4855 260.6406 0232667 246.7187 110.9319 13.70158625615498"}}, "geometry": {"type": "Point", "coordinates": [168.31153547821174, 81.4741949063053]}}, {"type": "Feature", "properties": {"norad_id": 36684, "name": "FENGYUN 1C DEB", "group": "fengyun-1c-debris", "lat": -33.471616148854544, "lon": -89.64730024857185, "alt_km": 591.466951807739, "timestamp": "2025-12-27T11:23:20.186087+00:00", "meta": {"OBJECT_NAME": "FENGYUN 1C DEB", "OBJECT_ID": "1999-025DZE", "EPOCH": "2025-12-21T05:17:41.042688", "MEAN_MOTION": 14.97175814, "ECCENTRICITY": 0.0018018, "INCLINATION": 99.4575, "RA_OF_ASC_NODE": 89.1224, "ARG_OF_PERICENTER": 79.4116, "MEAN_ANOMALY": 280.9129, "EPHEMERIS_TYPE": 0, "CLASSIFICATION_TYPE": "U", "NORAD_CAT_ID": 36684, "ELEMENT_SET_NO": 999, "REV_AT_EPOCH": 66028, "BSTAR": 0.003525, "MEAN_MOTION_DOT": 0.00041029, "MEAN_MOTION_DDOT": 0}, "tle": {"line1": "1 36684U 99025DZE 25355.22061392  .00041029  00000+0  35250-2 0  9999", "line2": "2 36684  99.4575  89.1224 0018018  79.4116 280.9129 14.97175814660280"}}, "geometry": {"type": "Point", "coordinates": [-89.64730024857185, -33.471616148854544]}}, {"type": "Feature", "properties": {"norad_id": 36686, "name": "FENGYUN 1C DEB", "group": "fengyun-1c-debris", "lat": 51.90671946321819, "lon": 26.246614425537828, "alt_km": 668.5175669420905, "timestamp": "2025-12-27T11:23:20.186097+00:00", "meta": {"OBJECT_NAME": "FENGYUN 1C DEB", "OBJECT_ID": "1999-025DZG", "EPOCH": "2025-12-24T19:25:41.479968", "MEAN_MOTION": 14.77343626, "ECCENTRICITY": 0.01046369, "INCLINATION": 99.0009, "RA_OF_ASC_NODE": 191.6088, "ARG_OF_PERICENTER": 15.7807, "MEAN_ANOMALY": 344.6619, "EPHEMERIS_TYPE": 0, "CLASSIFICATION_TYPE": "U", "NORAD_CAT_ID": 36686, "ELEMENT_SET_NO": 999, "REV_AT_EPOCH": 66030, "BSTAR": 0.00081992673, "MEAN_MOTION_DOT": 6.314e-05, "MEAN_MOTION_DDOT": 0}, "tle": {"line1": "1 36686U 99025DZG 25358.80950787  .00006314  00000+0  81993-3 0  9997", "line2": "2 36686  99.0009 191.6088 0104636  15.7807 344.6619 14.77343626660300"}}, "geometry": {"type": "Point", "coordinates": [26.246614425537828, 51.90671946321819]}}, {"type": "Feature", "properties": {"norad_id": 36687, "name": "FENGYUN 1C DEB", "group": "fengyun-1c-debris", "lat": 29.711988243950746, "lon": 82.29904746312506, "alt_km": 940.2314556928541, "timestamp": "2025-12-27T11:23:20.186107+00:00", "meta": {"OBJECT_NAME": "FENGYUN 1C DEB", "OBJECT_ID": "1999-025DZH", "EPOCH": "2025-12-17T23:51:08.993376", "MEAN_MOTION": 14.04533718, "ECCENTRICITY": 0.00903258, "INCLINATION": 98.7154, "RA_OF_ASC_NODE": 78.2194, "ARG_OF_PERICENTER": 250.4808, "MEAN_ANOMALY": 108.6587, "EPHEMERIS_TYPE": 0, "CLASSIFICATION_TYPE": "U", "NORAD_CAT_ID": 36687, "ELEMENT_SET_NO": 999, "REV_AT_EPOCH": 62796, "BSTAR": 6.2205267e-05, "MEAN_MOTION_DOT": 6e-07, "MEAN_MOTION_DDOT": 0}, "tle": {"line1": "1 36687U 99025DZH 25351.99385409  .00000060  00000+0  62205-4 0  9992", "line2": "2 36687  98.7154  78.2194 0090325 250.4808 108.6587 14.04533718627964"}}, "geometry": {"type": "Point", "coordinates": [82.29904746312506, 29.711988243950746]}}, {"type": "Feature", "properties": {"norad_id": 36689, "name": "FENGYUN 1C DEB", "group": "fengyun-1c-debris", "lat": 31.019685234698976, "lon": -111.45625586631175, "alt_km": 1140.9020121781114, "timestamp": "2025-12-27T11:23:20.186117+00:00", "meta": {"OBJECT_NAME": "FENGYUN 1C DEB", "OBJECT_ID": "1999-025DZK", "EPOCH": "2025-11-28T10:04:14.213280", "MEAN_MOTION": 13.74189275, "ECCENTRICITY": 0.03131537, "INCLINATION": 98.4796, "RA_OF_ASC_NODE": 227.8431, "ARG_OF_PERICENTER": 334.7216, "MEAN_ANOMALY": 23.8887, "EPHEMERIS_TYPE": 0, "CLASSIFICATION_TYPE": "U", "NORAD_CAT_ID": 36689, "ELEMENT_SET_NO": 999, "REV_AT_EPOCH": 58016, "BSTAR": 0.0027905602, "MEAN_MOTION_DOT": 3.71e-05, "MEAN_MOTION_DDOT": 0}, "tle": {"line1": "1 36689U 99025DZK 25332.41960895  .00003710  00000+0  27906-2 0  9990", "line2": "2 36689  98.4796 227.8431 0313153 334.7216  23.8887 13.74189275580169"}}, "geometry": {"type": "Point", "coordinates": [-111.45625586631175, 31.019685234698976]}}, {"type": "Feature", "properties": {"norad_id": 36691, "name": "FENGYUN 1C DEB", "group": "fengyun-1c-debris", "lat": 21.988117507236577, "lon": -175.53401389677623, "alt_km": 792.4909367942482, "timestamp": "2025-12-27T11:23:20.186127+00:00", "meta": {"OBJECT_NAME": "FENGYUN 1C DEB", "OBJECT_ID": "1999-025DZM", "EPOCH": "2025-12-08T17:50:07.073952", "MEAN_MOTION": 14.07105067, "ECCENTRICITY": 0.01290803, "INCLINATION": 98.6374, "RA_OF_ASC_NODE": 343.0423, "ARG_OF_PERICENTER": 246.8073, "MEAN_ANOMALY": 111.9457, "EPHEMERIS_TYPE": 0, "CLASSIFICATION_TYPE": "U", "NORAD_CAT_ID": 36691, "ELEMENT_SET_NO": 999, "REV_AT_EPOCH": 59553, "BSTAR": 0.0032098608, "MEAN_MOTION_DOT": 5.753e-05, "MEAN_MOTION_DDOT": 0}, "tle": {"line1": "1 36691U 99025DZM 25342.74313743  .00005753  00000+0  32099-2 0  9992", "line2": "2 36691  98.6374 343.0423 0129080 246.8073 111.9457 14.07105067595539"}}, "geometry": {"type": "Point", "coordinates": [-175.53401389677623, 21.988117507236577]}}]}